CELESTIS-02             
1 25160U 98007D   08348.17186384 -.00000097  00000-0  14661-4 0  9257
2 25160 107.9826  69.3448 0065381 284.2087  75.1778 14.20824747562026
CELESTIS-03             
1 26034U 99070C   08347.15313651  .00000198  00000-0  34035-4 0  4089
2 26034  98.3712 344.9193 0017979 227.0207 132.9515 14.79642151482665
AMC-14                  
1 32708U 08011A   08346.97949659  .00000003  00000-0  00000+0 0  3186
2 32708  13.3288 123.9807 0235262  42.6990 319.1164  1.01324460  4030
